H1 CPF 01  gfz 2021 12 28 01  8621 terrasarx 
H2 0702601  6201 31698    2021 12 28 00 59 42 2022 01 02 00 00 42   120 1 1  0 0 0
H9
10 0 59579   9342.000000  0    4288009.189   4907583.922  -2243454.086
10 0 59579   9462.000000  0    4191558.969   4525815.563  -3076179.627
10 0 59579   9582.000000  0    4014726.143   4067581.541  -3854928.654
10 0 59579   9702.000000  0    3759409.126   3542330.454  -4566106.265
10 0 59579   9822.000000  0    3429041.944   2960614.868  -5197331.240
10 0 59579   9942.000000  0    3028543.818   2333874.175  -5737645.678
10 0 59579  10062.000000  0    2564240.445   1674206.023  -6177695.895
10 0 59579  10182.000000  0    2043759.170    994131.135  -6509883.178
10 0 59579  10302.000000  0    1475900.985    306357.165  -6728482.420
10 0 59579  10422.000000  0     870492.434   -376454.456  -6829731.705
10 0 59579  10542.000000  0     238216.313  -1041917.406  -6811890.556
10 0 59579  10662.000000  0    -409572.989  -1678139.331  -6675264.638
10 0 59579  10782.000000  0   -1061047.622  -2273928.112  -6422201.611
10 0 59579  10902.000000  0   -1704117.371  -2818985.487  -6057056.110
10 0 59579  11022.000000  0   -2326648.747  -3304083.310  -5586122.078
10 0 59579  11142.000000  0   -2916689.888  -3721220.497  -5017535.818
10 0 59579  11262.000000  0   -3462699.705  -4063759.517  -4361147.600
10 0 59579  11382.000000  0   -3953775.053  -4326537.563  -3628361.041
10 0 59579  11502.000000  0   -4379871.333  -4505950.513  -2831943.938
10 0 59579  11622.000000  0   -4732012.522  -4600007.630  -1985811.380
10 0 59579  11742.000000  0   -5002484.855  -4608354.589  -1104784.550
10 0 59579  11862.000000  0   -5185009.107  -4532264.049   -204329.404
10 0 59579  11982.000000  0   -5274887.089  -4374593.750    699719.838
10 0 59579  12102.000000  0   -5269117.586  -4139711.971   1591447.718
10 0 59579  12222.000000  0   -5166477.582  -3833391.179   2455147.539
10 0 59579  12342.000000  0   -4967567.211  -3462673.299   3275606.696
10 0 59579  12462.000000  0   -4674817.744  -3035710.791   4038381.588
10 0 59579  12582.000000  0   -4292462.180  -2561586.985   4730057.276
10 0 59579  12702.000000  0   -3826468.931  -2050120.405   5338484.228
10 0 59579  12822.000000  0   -3284443.163  -1511659.849   5852989.191
10 0 59579  12942.000000  0   -2675497.188   -956873.637   6264559.769
10 0 59579  13062.000000  0   -2010090.754   -396535.891   6565998.080
10 0 59579  13182.000000  0   -1299845.587    158684.035   6752039.450
10 0 59579  13302.000000  0    -557340.071    698422.943   6819437.588
10 0 59579  13422.000000  0     204113.550   1212816.116   6767017.835
10 0 59579  13542.000000  0     970707.206   1692677.259   6595696.574
10 0 59579  13662.000000  0    1728386.835   2129662.825   6308465.840
10 0 59579  13782.000000  0    2463109.067   2516417.012   5910343.959
10 0 59579  13902.000000  0    3161101.839   2846696.922   5408294.157
10 0 59579  14022.000000  0    3809125.765   3115475.951   4811108.964
10 0 59579  14142.000000  0    4394728.373   3319022.702   4129260.860
10 0 59579  14262.000000  0    4906488.703   3454953.862   3374725.075
10 0 59579  14382.000000  0    5334249.705   3522261.142   2560770.317
10 0 59579  14502.000000  0    5669325.619   3521307.613   1701723.235
10 0 59579  14622.000000  0    5904683.868   3453797.187    812712.469
10 0 59579  14742.000000  0    6035095.874   3322715.865    -90605.333
10 0 59579  14862.000000  0    6057251.515   3132245.587   -992330.105
10 0 59579  14982.000000  0    5969835.377   2887653.423  -1876606.834
10 0 59579  15102.000000  0    5773561.927   2595160.345  -2727911.403
10 0 59579  15222.000000  0    5471170.715   2261792.479  -3531328.765
10 0 59579  15342.000000  0    5067381.814   1895217.645  -4272816.875
10 0 59579  15462.000000  0    4568811.806   1503571.997  -4939452.107
10 0 59579  15582.000000  0    3983853.377   1095281.809  -5519648.294
10 0 59579  15702.000000  0    3322524.842    678885.320  -6003349.373
10 0 59579  15822.000000  0    2596290.671    262857.483  -6382193.650
10 0 59579  15942.000000  0    1817857.880   -144558.480  -6649646.359
10 0 59579  16062.000000  0    1000953.830   -535509.931  -6801101.847
10 0 59579  16182.000000  0     160085.944   -902682.291  -6833955.549
10 0 59579  16302.000000  0    -689711.585  -1239431.714  -6747642.146
10 0 59579  16422.000000  0   -1533139.414  -1539901.757  -6543644.453
10 0 59579  16542.000000  0   -2354902.514  -1799123.308  -6225471.217
10 0 59579  16662.000000  0   -3139981.377  -2013095.539  -5798602.253
10 0 59579  16782.000000  0   -3873901.921  -2178847.690  -5270404.895
10 0 59579  16902.000000  0   -4543003.385  -2294480.952  -4650019.020
10 0 59579  17022.000000  0   -5134696.320  -2359188.364  -3948209.702
10 0 59579  17142.000000  0   -5637706.249  -2373252.772  -3177190.514
10 0 59579  17262.000000  0   -6042298.150  -2338022.094  -2350417.772
10 0 59579  17382.000000  0   -6340475.281  -2255861.963  -1482359.118
10 0 59579  17502.000000  0   -6526147.874  -2130086.796   -588240.090
10 0 59579  17622.000000  0   -6595266.121  -1964870.311    316226.948
10 0 59579  17742.000000  0   -6545914.043  -1765137.376   1215125.847
10 0 59579  17862.000000  0   -6378360.465  -1536439.700   2092625.891
10 0 59579  17982.000000  0   -6095065.022  -1284819.261   2933269.938
10 0 59579  18102.000000  0   -5700640.377  -1016662.359   3722254.520
10 0 59579  18222.000000  0   -5201770.806   -738547.844   4445697.776
10 0 59579  18342.000000  0   -4607088.147   -457094.211   5090885.748
10 0 59579  18462.000000  0   -3927013.702   -178809.417   5646494.332
10 0 59579  18582.000000  0   -3173566.967     90053.882   6102786.047
10 0 59579  18702.000000  0   -2360144.329    343634.116   6451775.824
10 0 59579  18822.000000  0   -1501274.612    576583.784   6687364.672
10 0 59579  18942.000000  0    -612355.526    784178.814   6805440.328
10 0 59579  19062.000000  0     290623.344    962412.321   6803943.662
10 0 59579  19182.000000  0    1191367.260   1108070.838   6682901.989
10 0 59579  19302.000000  0    2073569.286   1218792.513   6444428.749
10 0 59579  19422.000000  0    2921204.563   1293105.527   6092688.986
10 0 59579  19542.000000  0    3718822.594   1330446.453   5633831.838
10 0 59579  19662.000000  0    4451831.762   1331158.208   5075887.769
10 0 59579  19782.000000  0    5106770.232   1296468.126   4428635.141
10 0 59579  19902.000000  0    5671562.545   1228446.255   3703435.333
10 0 59579  20022.000000  0    6135752.501   1129944.820   2913034.530
10 0 59579  20142.000000  0    6490705.393   1004518.734   2071339.357
10 0 59579  20262.000000  0    6729778.319    856330.480   1193170.024
10 0 59579  20382.000000  0    6848451.767    690040.911    293992.923
10 0 59579  20502.000000  0    6844419.628    510688.527   -610359.200
10 0 59579  20622.000000  0    6717634.223    323560.416  -1503975.892
10 0 59579  20742.000000  0    6470304.641    134058.452  -2371157.287
10 0 59579  20862.000000  0    6106850.687    -52436.434  -3196696.103
10 0 59579  20982.000000  0    5633813.763   -230697.692  -3966148.386
10 0 59579  21102.000000  0    5059726.329   -395781.086  -4666087.102
10 0 59579  21222.000000  0    4394944.357   -543143.435  -5284332.206
10 0 59579  21342.000000  0    3651449.880   -668750.235  -5810154.969
10 0 59579  21462.000000  0    2842626.615   -769170.839  -6234455.304
10 0 59579  21582.000000  0    1983012.830   -841657.913  -6549908.123
10 0 59579  21702.000000  0    1088038.757   -884210.071  -6751077.854
10 0 59579  21822.000000  0     173752.180   -895618.261  -6834503.135
10 0 59579  21942.000000  0    -743464.838   -875493.171  -6798749.487
10 0 59579  22062.000000  0   -1647182.212   -824274.860  -6644431.242
10 0 59579  22182.000000  0   -2521209.920   -743223.659  -6374202.137
10 0 59579  22302.000000  0   -3349881.208   -634392.937  -5992713.233
10 0 59579  22422.000000  0   -4118328.435   -500584.159  -5506542.700
10 0 59579  22542.000000  0   -4812750.762   -345284.402  -4924093.553
10 0 59579  22662.000000  0   -5420665.149   -172587.606  -4255459.570
10 0 59579  22782.000000  0   -5931138.774     12899.018  -3512262.188
10 0 59579  22902.000000  0   -6334997.093    206162.803  -2707456.620
10 0 59579  23022.000000  0   -6625001.553    401904.684  -1855111.470
10 0 59579  23142.000000  0   -6795992.871    594667.887   -970164.258
10 0 59579  23262.000000  0   -6844995.658    778971.609    -68155.742
10 0 59579  23382.000000  0   -6771277.297    949447.477    835049.937
10 0 59579  23502.000000  0   -6576363.606   1100975.014   1723550.947
10 0 59579  23622.000000  0   -6264010.011   1228812.687   2581696.876
10 0 59579  23742.000000  0   -5840126.662   1328720.772   3394373.775
10 0 59579  23862.000000  0   -5312659.571   1397072.824   4147277.689
10 0 59579  23982.000000  0   -4691432.219   1430953.138   4827170.064
10 0 59579  24102.000000  0   -3987952.772   1428237.783   5422110.894
10 0 59579  24222.000000  0   -3215192.160   1387657.647   5921666.264
10 0 59579  24342.000000  0   -2387337.225   1308842.204   6317088.280
10 0 59579  24462.000000  0   -1519522.689   1192343.594   6601463.440
10 0 59579  24582.000000  0    -627549.411   1039639.595   6769826.084
10 0 59579  24702.000000  0     272404.212    853116.410   6819238.740
10 0 59579  24822.000000  0    1164074.783    636031.173   6748839.821
10 0 59579  24942.000000  0    2031406.437    392455.317   6559857.673
10 0 59579  25062.000000  0    2858838.762    127199.175   6255591.089
10 0 59579  25182.000000  0    3631586.982   -154281.347   5841356.469
10 0 59579  25302.000000  0    4335909.016   -445994.510   5324399.874
10 0 59579  25422.000000  0    4959354.536   -741536.845   4713776.439
10 0 59579  25542.000000  0    5490992.446  -1034229.460   4020197.400
10 0 59579  25662.000000  0    5921611.481  -1317264.273   3255846.366
10 0 59579  25782.000000  0    6243889.900  -1583856.606   2434166.255
99
